[{"OBJECT_NAME":"TIANMU-1 19","OBJECT_ID":"2023-208A","EPOCH":"2026-03-09T22:13:36.801696","MEAN_MOTION":15.2984143,"ECCENTRICITY":0.00039292,"INCLINATION":97.4383,"RA_OF_ASC_NODE":184.9132,"ARG_OF_PERICENTER":316.2611,"MEAN_ANOMALY":43.8317,"EPHEMERIS_TYPE":0,"CLASSIFICATION_TYPE":"U","NORAD_CAT_ID":58660,"ELEMENT_SET_NO":999,"REV_AT_EPOCH":12214,"BSTAR":0.00040995676,"MEAN_MOTION_DOT":0.00011779,"MEAN_MOTION_DDOT":0},{"OBJECT_NAME":"STARLINK-36103","OBJECT_ID":"2025-288AC","EPOCH":"2026-03-09T03:56:44.559168","MEAN_MOTION":15.27565504,"ECCENTRICITY":0.00019003,"INCLINATION":43.0021,"RA_OF_ASC_NODE":26.7029,"ARG_OF_PERICENTER":273.699,"MEAN_ANOMALY":86.3644,"EPHEMERIS_TYPE":0,"CLASSIFICATION_TYPE":"U","NORAD_CAT_ID":66985,"ELEMENT_SET_NO":999,"REV_AT_EPOCH":1520,"BSTAR":0.00097588876,"MEAN_MOTION_DOT":0.00026678,"MEAN_MOTION_DDOT":0}]
